FALCONSAT-6             
1 43815U 18099BK  26068.72544389  .00005029  00000+0  19477-3 0  9998
2 43815  97.3865 145.8165 0014370 297.0944 181.0714 15.26532865398556
STARLINK-34102          
1 63806U 25092C   26068.31634976  .00029478  00000+0  10762-2 0  9999
2 63806  42.9960 174.9900 0002883 287.5532  72.5004 15.27586538 48604
